#dP2018  2 15  0  0  0.00000000      96 __u+U ITR00 FIT  IAC
## 1988 345600.00000000   900.00000000 58164 0.0000000000000
+   87   C01C02C03C04C05C06C07C08C09C10C11C12C13C14E01E02E03
+        E04E05E07E08E09E11E12E14E18E19E24E26E30G01G02G03G04
+        G05G06G07G08G09G10G11G12G13G14G15G16G17G19G20G21G22
+        G23G24G25G26G27G28G29G31G32J01J02J03R01R02R03R04R05
+        R06R07R08R09R10R11R13R14R15R16R17R18R19R20R21R22R23
+        R24R26  0  0  0  0  0  0  0  0  0  0  0  0  0  0  0
++         0  0  0  0  0  0  0  0  0  0  0  0  0  0  0  0  0
++         0  0  0  0  0  0  0  0  0  0  0  0  0  0  0  0  0
++         0  0  0  0  0  0  0  0  0  0  0  0  0  0  0  0  0
++         0  0  0  0  0  0  0  0  0  0  0  0  0  0  0  0  0
++         0  0  0  0  0  0  0  0  0  0  0  0  0  0  0  0  0
++         0  0  0  0  0  0  0  0  0  0  0  0  0  0  0  0  0
%c M  cc GPS ccc cccc cccc cccc cccc ccccc ccccc ccccc ccccc
%c cc cc ccc ccc cccc cccc cccc cccc ccccc ccccc ccccc ccccc
%f  0.0000000  0.000000000  0.00000000000  0.000000000000000
%f  0.0000000  0.000000000  0.00000000000  0.000000000000000
%i    0    0    0    0      0      0      0      0         0
%i    0    0    0    0      0      0      0      0         0
/*                                                          
/*   RSA / INFORMATION & ANALYSIS CENTER (IAC) OF MCC       
/*   ULTRA-RAPID DETERMINATION                              
/* PCV:IGS14_1984 OL/AL:FES2004  NONE     YN ORB:CoN CLK:CoN
*  2018 02 15  2 30  0.00000000
PC01 -32307.147772  27082.647731   -894.161457    368.481717
PC02      0.000000      0.000000      0.000000 999999.999999
PC03 -14768.186513  39460.487256  -1108.959840    -88.523298
PC04 -39632.211643  14338.658908   -460.751230   -111.039125
PC05  21945.736376  35995.156229     -5.643602   -152.220875
PC06 -16244.383787  21400.505853  32659.898211   -680.650417
PC07 -22283.591930  35827.470619  -3960.086384   -311.899963
PC08  -5309.470705  31712.759962 -27054.580852    176.146865
PC09   -271.503760  24854.927720  34223.091632   -402.614572
PC10 -11354.617306  37291.870404 -16375.701284    -17.210527
PC11 -20579.334987  -2422.157565 -18665.195434   -392.072970
PC12 -21444.051708 -17765.138233  -2406.098490    381.156005
PC13   4797.520463  38771.710083 -15552.204081   -205.451016
PC14 -27019.973408   5453.135373  -4089.262241    212.026706
PE01  20011.107097  -5837.430454 -21018.260831   -276.954785
PE02 -20008.583841   5845.162485  21009.751486      4.748042
PE03 -29570.244110   -715.677129   1235.020025      0.726179
PE04  20534.318901 -11621.831263 -17876.600660     23.819876
PE05 -21300.695900 -12672.720156 -16181.513394    321.772456
PE07    589.569570  17189.447893  24093.550017     84.019428
PE08 -20439.787361  11706.381950  17930.496766   6641.637440
PE09   -707.908124 -17034.998338 -24193.895348   6874.598952
PE11  -5583.784606 -26865.827489  11081.813489   1848.975225
PE12   9824.634227 -15274.393031  23381.402547   3509.757972
PE14  23724.576550  16566.768628  -1798.155836   6630.862497
PE18 -25346.617675  -4271.369982 -12352.390911   6426.816026
PE19  29539.267839   1881.485756    606.110544     19.423508
PE24   6276.561882 -25661.819308  13364.648594   6861.801898
PE26  17408.692371  22771.658550   7389.967094   6269.079606
PE30 -18664.572651  22340.334280   5308.871335   6076.234034
PG01  13333.863379 -11172.662678  19847.209871    -28.886502
PG02 -13716.864432 -14057.342600 -17454.461268    199.986780
PG03  23239.318141 -12631.463142   2059.509789      9.571887
PG04   5005.450494  14210.501915 -22090.360579     37.729567
PG05 -19550.708771  -2740.723207 -17963.317824    -14.297904
PG06  -7382.605431 -23593.144309  -9652.719565    414.464184
PG07   6096.366876 -23895.498897  -9046.111524    236.622129
PG08  23495.385307   2769.510249  12268.216650    -91.217173
PG09   6777.464760 -13844.506187 -21666.801520    501.078913
PG10   -399.618893  17007.796784  20391.460202    160.004061
PG11  14296.268591  -7553.809369  20519.165761   -736.259779
PG12 -24121.249048  10133.775075   3707.618366    350.242038
PG13 -23182.232469 -11687.175126   5463.653856    -95.596257
PG14  17057.613584  18488.606232   9069.390242    -93.957885
PG15 -23716.888288   -508.564507  12115.972668   -357.000390
PG16  19377.138615   3533.698371 -18161.038022     32.226586
PG17  -9829.870592 -18784.712192  16466.805883   -123.130592
PG19 -15979.993654 -18568.971777   9721.167272   -457.008321
PG20 -22486.550834  13527.164564  -4086.025597    500.924915
PG21  -2441.789564  25541.156311  -5999.655529   -430.279892
PG22  23681.680252  -8002.358575   9239.153014   -291.948804
PG23  18596.094469  -5144.253762 -18161.761584   -218.946978
PG24 -14495.658143   7898.166551  20641.890308    -46.065665
PG25 -17895.389935  17635.350407  -8397.173993   -538.910588
PG26  10643.642337  11242.721226 -21591.488102   -250.170821
PG27  23625.912408  12430.335099    207.662323    367.121918
PG28   5070.099968 -17405.350945  20055.263597    688.891959
PG29 -11043.315727  10298.898804 -21859.776308    496.196854
PG31   7482.841534  22811.345669 -10839.199233    141.668307
PG32  10766.894011  18387.117387  15925.952181   -532.177218
PJ01      0.000000      0.000000      0.000000 999999.999999
PJ02 -28223.962419  26891.120122  20538.068883     -0.081861
PJ03      0.000000      0.000000      0.000000 999999.999999
PR01  -3573.090470 -10699.006804 -22881.137922     22.101720
PR02 -21506.079202  -3828.651855 -13098.219658    295.296311
PR03 -24692.988455   4792.563843   4143.325813    124.168664
PR04 -13030.342681  10683.005570  19155.911517    249.950493
PR05   5436.369402  10354.620006  22656.904347   -248.191816
PR06  22110.193444   3183.254114  12328.117168    127.051443
PR07  24649.467099  -4905.621581  -4433.726756    -30.131571
PR08  13701.559844 -10525.058893 -18719.684427     38.354475
PR09   9141.589787   6529.759747 -22892.607166     48.184273
PR10  14171.761288 -11694.749486 -17679.252547     18.293028
PR11  11082.746288 -22902.284138  -1529.018426    -21.841759
PR13  -9362.968419  -5496.795002  23061.852654     -7.482959
PR14 -14304.858990  11464.802100  17748.538523     24.705647
PR15 -12339.153354  21648.751202   5192.645470     -6.438701
PR16  -1325.101701  20822.981447 -14612.487035     85.632324
PR17 -13745.418692  -2045.535209 -21381.849015    109.303054
PR18  -2644.146203  13209.603551 -21654.299296    184.871453
PR19   9718.126597  21508.683693  -9671.992883    -44.624443
PR20  16848.925312  16876.818334   9139.824739   -327.240311
PR21  13550.731627   1783.738995  21539.927642     29.068189
PR22   1389.634073 -14374.627264  21000.097981    -18.887604
PR23 -12043.291332 -21548.414066   6415.459950    136.334041
PR24 -17193.461289 -16103.304715  -9780.316608   -162.464598
PR26  17148.311362  16622.475227   8949.276733 999999.999999
EOF
